{"type": "FeatureCollection", "features": [ {"type": "Feature", "properties": {"norad_id": 54234, "name": "NOAA 21 (JPSS-2)", "group": "weather", "lat": 75.81694384900696, "lon": 152.02248308198898, "alt_km": 819.6803300417341, "timestamp": "2025-12-24T07:45:05.842037+00:00", "meta": {"OBJECT_NAME": "NOAA 21 (JPSS-2)", "OBJECT_ID": "2022-150A", "EPOCH": "2025-12-23T21:07:36.823584", "MEAN_MOTION": 14.19527102, "ECCENTRICITY": 0.00017176, "INCLINATION": 98.7477, "RA_OF_ASC_NODE": 294.0502, "ARG_OF_PERICENTER": 15.3533, "MEAN_ANOMALY": 344.7695, "EPHEMERIS_TYPE": 0, "CLASSIFICATION_TYPE": "U", "NORAD_CAT_ID": 54234, "ELEMENT_SET_NO": 999, "REV_AT_EPOCH": 16167, "BSTAR": 6.378389e-05, "MEAN_MOTION_DOT": 9.1e-07, "MEAN_MOTION_DDOT": 0}, "tle": {"line1": "1 54234U 22150A   25357.88028731  .00000091  00000+0  63784-4 0  9998", "line2": "2 54234  98.7477 294.0502 0001717  15.3533 344.7695 14.19527102161671"}}, "geometry": {"type": "Point", "coordinates": [152.02248308198898, 75.81694384900696]}}, {"type": "Feature", "properties": {"norad_id": 54743, "name": "METEOSAT-12 (MTG-I1)", "group": "weather", "lat": -0.049938887514155074, "lon": -150.96726160136333, "alt_km": 35782.7181117811, "timestamp": "2025-12-24T07:45:05.842049+00:00", "meta": {"OBJECT_NAME": "METEOSAT-12 (MTG-I1)", "OBJECT_ID": "2022-170C", "EPOCH": "2025-12-23T21:41:25.259712", "MEAN_MOTION": 1.00270844, "ECCENTRICITY": 0.00015718, "INCLINATION": 0.6983, "RA_OF_ASC_NODE": 25.4663, "ARG_OF_PERICENTER": 240.5377, "MEAN_ANOMALY": 151.7194, "EPHEMERIS_TYPE": 0, "CLASSIFICATION_TYPE": "U", "NORAD_CAT_ID": 54743, "ELEMENT_SET_NO": 999, "REV_AT_EPOCH": 1122, "BSTAR": 0, "MEAN_MOTION_DOT": 1.3e-07, "MEAN_MOTION_DDOT": 0}, "tle": {"line1": "1 54743U 22170C   25357.90376458  .00000013  00000+0  00000+0 0  9991", "line2": "2 54743   0.6983  25.4663 0001571 240.5377 151.7194  1.00270844 11229"}}, "geometry": {"type": "Point", "coordinates": [-150.96726160136333, -0.049938887514155074]}}, {"type": "Feature", "properties": {"norad_id": 55973, "name": "TIANMU-1 03", "group": "weather", "lat": 46.998733425793795, "lon": 153.1666527233636, "alt_km": 435.87038387109806, "timestamp": "2025-12-24T07:45:05.842060+00:00", "meta": {"OBJECT_NAME": "TIANMU-1 03", "OBJECT_ID": "2023-039A", "EPOCH": "2025-12-23T23:45:19.010304", "MEAN_MOTION": 15.41241629, "ECCENTRICITY": 0.00038515, "INCLINATION": 97.5112, "RA_OF_ASC_NODE": 160.958, "ARG_OF_PERICENTER": 28.4452, "MEAN_ANOMALY": 331.7003, "EPHEMERIS_TYPE": 0, "CLASSIFICATION_TYPE": "U", "NORAD_CAT_ID": 55973, "ELEMENT_SET_NO": 999, "REV_AT_EPOCH": 15379, "BSTAR": 0.00037923264, "MEAN_MOTION_DOT": 0.00015691, "MEAN_MOTION_DDOT": 0}, "tle": {"line1": "1 55973U 23039A   25357.98980336  .00015691  00000+0  37923-3 0  9992", "line2": "2 55973  97.5112 160.9580 0003851  28.4452 331.7003 15.41241629153794"}}, "geometry": {"type": "Point", "coordinates": [153.1666527233636, 46.998733425793795]}}, {"type": "Feature", "properties": {"norad_id": 55974, "name": "TIANMU-1 04", "group": "weather", "lat": 4.10530403804861, "lon": -18.971054436987597, "alt_km": 446.73264301446943, "timestamp": "2025-12-24T07:45:05.842071+00:00", "meta": {"OBJECT_NAME": "TIANMU-1 04", "OBJECT_ID": "2023-039B", "EPOCH": "2025-12-23T23:12:09.484416", "MEAN_MOTION": 15.4158413, "ECCENTRICITY": 0.00044627, "INCLINATION": 97.5045, "RA_OF_ASC_NODE": 160.1207, "ARG_OF_PERICENTER": 21.6385, "MEAN_ANOMALY": 338.5049, "EPHEMERIS_TYPE": 0, "CLASSIFICATION_TYPE": "U", "NORAD_CAT_ID": 55974, "ELEMENT_SET_NO": 999, "REV_AT_EPOCH": 15379, "BSTAR": 0.0003821044, "MEAN_MOTION_DOT": 0.00015993, "MEAN_MOTION_DDOT": 0}, "tle": {"line1": "1 55974U 23039B   25357.96677644  .00015993  00000+0  38210-3 0  9991", "line2": "2 55974  97.5045 160.1207 0004462  21.6385 338.5049 15.41584130153799"}}, "geometry": {"type": "Point", "coordinates": [-18.971054436987597, 4.10530403804861]}}, {"type": "Feature", "properties": {"norad_id": 55975, "name": "TIANMU-1 05", "group": "weather", "lat": -11.727013488294201, "lon": -20.58936727110512, "alt_km": 449.30121423469063, "timestamp": "2025-12-24T07:45:05.842081+00:00", "meta": {"OBJECT_NAME": "TIANMU-1 05", "OBJECT_ID": "2023-039C", "EPOCH": "2025-12-23T23:07:53.230656", "MEAN_MOTION": 15.41197661, "ECCENTRICITY": 0.00040003, "INCLINATION": 97.5091, "RA_OF_ASC_NODE": 160.6105, "ARG_OF_PERICENTER": 47.2243, "MEAN_ANOMALY": 312.9339, "EPHEMERIS_TYPE": 0, "CLASSIFICATION_TYPE": "U", "NORAD_CAT_ID": 55975, "ELEMENT_SET_NO": 999, "REV_AT_EPOCH": 15377, "BSTAR": 0.00037851072, "MEAN_MOTION_DOT": 0.00015638, "MEAN_MOTION_DDOT": 0}, "tle": {"line1": "1 55975U 23039C   25357.96381054  .00015638  00000+0  37851-3 0  9995", "line2": "2 55975  97.5091 160.6105 0004000  47.2243 312.9339 15.41197661153773"}}, "geometry": {"type": "Point", "coordinates": [-20.58936727110512, -11.727013488294201]}}, {"type": "Feature", "properties": {"norad_id": 55976, "name": "TIANMU-1 06", "group": "weather", "lat": 13.905226620516403, "lon": -16.674024638369783, "alt_km": 444.0799554727646, "timestamp": "2025-12-24T07:45:05.842091+00:00", "meta": {"OBJECT_NAME": "TIANMU-1 06", "OBJECT_ID": "2023-039D", "EPOCH": "2025-12-23T23:14:44.935296", "MEAN_MOTION": 15.41635381, "ECCENTRICITY": 0.00042468, "INCLINATION": 97.5102, "RA_OF_ASC_NODE": 161.0897, "ARG_OF_PERICENTER": 41.2443, "MEAN_ANOMALY": 318.9124, "EPHEMERIS_TYPE": 0, "CLASSIFICATION_TYPE": "U", "NORAD_CAT_ID": 55976, "ELEMENT_SET_NO": 999, "REV_AT_EPOCH": 15379, "BSTAR": 0.00038104543, "MEAN_MOTION_DOT": 0.00015976, "MEAN_MOTION_DDOT": 0}, "tle": {"line1": "1 55976U 23039D   25357.96857564  .00015976  00000+0  38105-3 0  9998", "line2": "2 55976  97.5102 161.0897 0004246  41.2443 318.9124 15.41635381153794"}}, "geometry": {"type": "Point", "coordinates": [-16.674024638369783, 13.905226620516403]}}, {"type": "Feature", "properties": {"norad_id": 56232, "name": "FENGYUN 3G", "group": "weather", "lat": 31.187222649019027, "lon": -42.910232441964816, "alt_km": 397.1355151798771, "timestamp": "2025-12-24T07:45:05.842104+00:00", "meta": {"OBJECT_NAME": "FENGYUN 3G", "OBJECT_ID": "2023-055A", "EPOCH": "2025-12-23T23:26:53.187072", "MEAN_MOTION": 15.5429502, "ECCENTRICITY": 0.0009189, "INCLINATION": 49.9923, "RA_OF_ASC_NODE": 169.4369, "ARG_OF_PERICENTER": 199.0042, "MEAN_ANOMALY": 161.0585, "EPHEMERIS_TYPE": 0, "CLASSIFICATION_TYPE": "U", "NORAD_CAT_ID": 56232, "ELEMENT_SET_NO": 999, "REV_AT_EPOCH": 15277, "BSTAR": 0.00049464098, "MEAN_MOTION_DOT": 0.00032703, "MEAN_MOTION_DDOT": 0}, "tle": {"line1": "1 56232U 23055A   25357.97700448  .00032703  00000+0  49464-3 0  9998", "line2": "2 56232  49.9923 169.4369 0009189 199.0042 161.0585 15.54295020152777"}}, "geometry": {"type": "Point", "coordinates": [-42.910232441964816, 31.187222649019027]}}, {"type": "Feature", "properties": {"norad_id": 57166, "name": "METEOR-M2 3", "group": "weather", "lat": -14.983717963236312, "lon": -130.67211102707293, "alt_km": 818.1816202480832, "timestamp": "2025-12-24T07:45:05.842115+00:00", "meta": {"OBJECT_NAME": "METEOR-M2 3", "OBJECT_ID": "2023-091A", "EPOCH": "2025-12-24T00:05:35.117952", "MEAN_MOTION": 14.24027384, "ECCENTRICITY": 0.00033027, "INCLINATION": 98.6363, "RA_OF_ASC_NODE": 51.3457, "ARG_OF_PERICENTER": 333.9835, "MEAN_ANOMALY": 26.1177, "EPHEMERIS_TYPE": 0, "CLASSIFICATION_TYPE": "U", "NORAD_CAT_ID": 57166, "ELEMENT_SET_NO": 999, "REV_AT_EPOCH": 12958, "BSTAR": 2.3349704e-05, "MEAN_MOTION_DOT": 1e-07, "MEAN_MOTION_DDOT": 0}, "tle": {"line1": "1 57166U 23091A   25358.00387868  .00000010  00000+0  23350-4 0  9990", "line2": "2 57166  98.6363  51.3457 0003302 333.9835  26.1177 14.24027384129583"}}, "geometry": {"type": "Point", "coordinates": [-130.67211102707293, -14.983717963236312]}}, {"type": "Feature", "properties": {"norad_id": 57399, "name": "TIANMU-1 07", "group": "weather", "lat": 36.191110860994726, "lon": 42.54609906307305, "alt_km": 475.30079957082944, "timestamp": "2025-12-24T07:45:05.842125+00:00", "meta": {"OBJECT_NAME": "TIANMU-1 07", "OBJECT_ID": "2023-101A", "EPOCH": "2025-12-23T23:44:06.417024", "MEAN_MOTION": 15.28225506, "ECCENTRICITY": 0.00050853, "INCLINATION": 97.2856, "RA_OF_ASC_NODE": 47.5905, "ARG_OF_PERICENTER": 52.7429, "MEAN_ANOMALY": 307.4274, "EPHEMERIS_TYPE": 0, "CLASSIFICATION_TYPE": "U", "NORAD_CAT_ID": 57399, "ELEMENT_SET_NO": 999, "REV_AT_EPOCH": 13487, "BSTAR": 0.00026935043, "MEAN_MOTION_DOT": 7.338e-05, "MEAN_MOTION_DDOT": 0}, "tle": {"line1": "1 57399U 23101A   25357.98896316  .00007338  00000+0  26935-3 0  9990", "line2": "2 57399  97.2856  47.5905 0005085  52.7429 307.4274 15.28225506134875"}}, "geometry": {"type": "Point", "coordinates": [42.54609906307305, 36.191110860994726]}}, {"type": "Feature", "properties": {"norad_id": 57400, "name": "TIANMU-1 08", "group": "weather", "lat": -37.41938093078854, "lon": -137.90328145496113, "alt_km": 492.316463059984, "timestamp": "2025-12-24T07:45:05.842135+00:00", "meta": {"OBJECT_NAME": "TIANMU-1 08", "OBJECT_ID": "2023-101B", "EPOCH": "2025-12-23T22:56:41.768736", "MEAN_MOTION": 15.2820699, "ECCENTRICITY": 0.00070271, "INCLINATION": 97.2845, "RA_OF_ASC_NODE": 47.3544, "ARG_OF_PERICENTER": 52.2422, "MEAN_ANOMALY": 307.9453, "EPHEMERIS_TYPE": 0, "CLASSIFICATION_TYPE": "U", "NORAD_CAT_ID": 57400, "ELEMENT_SET_NO": 999, "REV_AT_EPOCH": 13486, "BSTAR": 0.0002880281, "MEAN_MOTION_DOT": 7.851e-05, "MEAN_MOTION_DDOT": 0}, "tle": {"line1": "1 57400U 23101B   25357.95603899  .00007851  00000+0  28803-3 0  9998", "line2": "2 57400  97.2845  47.3544 0007027  52.2422 307.9453 15.28206990134868"}}, "geometry": {"type": "Point", "coordinates": [-137.90328145496113, -37.41938093078854]}}]}